{
    "links": {
        "self": "http://www.neowsapp.com/rest/v1/neo/3274167?api_key=iIulBulltgU6a56xZRHN4H3l9WmuAYTsLGpBGhQ2"
    },
    "id": "3274167",
    "neo_reference_id": "3274167",
    "name": "(2005 EM169)",
    "designation": "2005 EM169",
    "nasa_jpl_url": "http://ssd.jpl.nasa.gov/sbdb.cgi?sstr=3274167",
    "absolute_magnitude_h": 24.8,
    "estimated_diameter": {
        "kilometers": {
            "estimated_diameter_min": 0.0291443905,
            "estimated_diameter_max": 0.0651688382
        },
        "meters": {
            "estimated_diameter_min": 29.1443904535,
            "estimated_diameter_max": 65.1688382168
        },
        "miles": {
            "estimated_diameter_min": 0.018109479,
            "estimated_diameter_max": 0.0404940262
        },
        "feet": {
            "estimated_diameter_min": 95.6180819754,
            "estimated_diameter_max": 213.8085311752
        }
    },
    "is_potentially_hazardous_asteroid": false,
    "close_approach_data": [
        {
            "close_approach_date": "2005-03-08",
            "close_approach_date_full": "2005-Mar-08 15:11",
            "epoch_date_close_approach": 1110294660000,
            "relative_velocity": {
                "kilometers_per_second": "19.2505914915",
                "kilometers_per_hour": "69302.1293693834",
                "miles_per_hour": "43061.6481073261"
            },
            "miss_distance": {
                "astronomical": "0.0092134113",
                "lunar": "3.5840169957",
                "kilometers": "1378306.705913931",
                "miles": "856440.0734010078"
            },
            "orbiting_body": "Moon"
        },
        {
            "close_approach_date": "2005-03-08",
            "close_approach_date_full": "2005-Mar-08 18:18",
            "epoch_date_close_approach": 1110305880000,
            "relative_velocity": {
                "kilometers_per_second": "18.61413838",
                "kilometers_per_hour": "67010.8981681069",
                "miles_per_hour": "41637.9661422884"
            },
            "miss_distance": {
                "astronomical": "0.0076319344",
                "lunar": "2.9688224816",
                "kilometers": "1141721.130219728",
                "miles": "709432.6134911264"
            },
            "orbiting_body": "Earth"
        },
        {
            "close_approach_date": "2160-10-13",
            "close_approach_date_full": "2160-Oct-13 06:58",
            "epoch_date_close_approach": 6020549880000,
            "relative_velocity": {
                "kilometers_per_second": "26.3190827329",
                "kilometers_per_hour": "94748.6978384461",
                "miles_per_hour": "58873.1561652278"
            },
            "miss_distance": {
                "astronomical": "0.3238974053",
                "lunar": "125.9960906617",
                "kilometers": "48454361.931406711",
                "miles": "30108144.3709701718"
            },
            "orbiting_body": "Earth"
        },
        {
            "close_approach_date": "2162-07-18",
            "close_approach_date_full": "2162-Jul-18 15:04",
            "epoch_date_close_approach": 6076134240000,
            "relative_velocity": {
                "kilometers_per_second": "9.0574814442",
                "kilometers_per_hour": "32606.9331992676",
                "miles_per_hour": "20260.6802426227"
            },
            "miss_distance": {
                "astronomical": "1.3936491452",
                "lunar": "542.1295174828",
                "kilometers": "208486943.649240724",
                "miles": "129547779.5732770312"
            },
            "orbiting_body": "Juptr"
        }
    ],
    "orbital_data": {
        "orbit_id": "10",
        "orbit_determination_date": "2017-04-06 09:11:16",
        "first_observation_date": "2005-03-11",
        "last_observation_date": "2005-03-16",
        "data_arc_in_days": 5,
        "observations_used": 36,
        "orbit_uncertainty": "8",
        "minimum_orbit_intersection": ".00214999",
        "jupiter_tisserand_invariant": "2.807",
        "epoch_osculation": "2453443.5",
        "eccentricity": ".7357333588610369",
        "semi_major_axis": "2.855929364010867",
        "inclination": "10.93817204581782",
        "ascending_node_longitude": "348.2343715777521",
        "orbital_period": "1762.867290174119",
        "perihelion_distance": ".7547268603572869",
        "perihelion_argument": "115.0509272420931",
        "aphelion_distance": "4.957131867664446",
        "perihelion_time": "2453398.638321603867",
        "mean_anomaly": "9.161327294814528",
        "mean_motion": ".2042127629269488",
        "equinox": "J2000",
        "orbit_class": {
            "orbit_class_type": "APO",
            "orbit_class_description": "Near-Earth asteroid orbits which cross the Earth’s orbit similar to that of 1862 Apollo",
            "orbit_class_range": "a (semi-major axis) > 1.0 AU; q (perihelion) < 1.017 AU"
        }
    },
    "is_sentry_object": false
}